{"type": "FeatureCollection", "features": [{"type": "Feature", "properties": {"norad_id": 25590, "name": "COSMOS 2361", "group": "musson", "lat": 55.82485692219927, "lon": -16.446684181519252, "alt_km": 1004.4376623136595, "timestamp": "2025-12-27T16:33:30.492289+00:00", "meta": {"OBJECT_NAME": "COSMOS 2361", "OBJECT_ID": "1998-076A", "EPOCH": "2025-12-27T11:37:08.932224", "MEAN_MOTION": 13.73219172, "ECCENTRICITY": 0.0030428, "INCLINATION": 82.9346, "RA_OF_ASC_NODE": 333.1808, "ARG_OF_PERICENTER": 222.9869, "MEAN_ANOMALY": 256.7901, "EPHEMERIS_TYPE": 0, "CLASSIFICATION_TYPE": "U", "NORAD_CAT_ID": 25590, "ELEMENT_SET_NO": 999, "REV_AT_EPOCH": 35313, "BSTAR": 7.162e-05, "MEAN_MOTION_DOT": 8.1e-07, "MEAN_MOTION_DDOT": 0}, "tle": {"line1": "1 25590U 98076A   25361.48413116  .00000081  00000+0  71620-4 0  9994", "line2": "2 25590  82.9346 333.1808 0030428 222.9869 256.7901 13.73219172353137"}}, "geometry": {"type": "Point", "coordinates": [-16.446684181519252, 55.82485692219927]}}, {"type": "Feature", "properties": {"norad_id": 26818, "name": "COSMOS 2378", "group": "musson", "lat": 0.8383553770924, "lon": 168.5344970601508, "alt_km": 963.9093781985284, "timestamp": "2025-12-27T16:33:30.492311+00:00", "meta": {"OBJECT_NAME": "COSMOS 2378", "OBJECT_ID": "2001-023A", "EPOCH": "2025-12-27T12:47:08.465568", "MEAN_MOTION": 13.74143244, "ECCENTRICITY": 0.0033336, "INCLINATION": 82.9272, "RA_OF_ASC_NODE": 348.7551, "ARG_OF_PERICENTER": 163.5383, "MEAN_ANOMALY": 318.1824, "EPHEMERIS_TYPE": 0, "CLASSIFICATION_TYPE": "U", "NORAD_CAT_ID": 26818, "ELEMENT_SET_NO": 999, "REV_AT_EPOCH": 23126, "BSTAR": 5.7701e-05, "MEAN_MOTION_DOT": 7e-07, "MEAN_MOTION_DDOT": 0}, "tle": {"line1": "1 26818U 01023A   25361.53273687  .00000070  00000+0  57701-4 0  9999", "line2": "2 26818  82.9272 348.7551 0033336 163.5383 318.1824 13.74143244231261"}}, "geometry": {"type": "Point", "coordinates": [168.5344970601508, 0.8383553770924]}}, {"type": "Feature", "properties": {"norad_id": 27436, "name": "COSMOS 2389", "group": "musson", "lat": 78.36486652075375, "lon": -27.150880923441907, "alt_km": 956.8754357611479, "timestamp": "2025-12-27T16:33:30.492325+00:00", "meta": {"OBJECT_NAME": "COSMOS 2389", "OBJECT_ID": "2002-026A", "EPOCH": "2025-12-27T07:59:33.049824", "MEAN_MOTION": 13.75156231, "ECCENTRICITY": 0.0046957, "INCLINATION": 82.9514, "RA_OF_ASC_NODE": 296.1823, "ARG_OF_PERICENTER": 20.8637, "MEAN_ANOMALY": 93.4735, "EPHEMERIS_TYPE": 0, "CLASSIFICATION_TYPE": "U", "NORAD_CAT_ID": 27436, "ELEMENT_SET_NO": 999, "REV_AT_EPOCH": 18349, "BSTAR": 6.5449e-05, "MEAN_MOTION_DOT": 7.8e-07, "MEAN_MOTION_DDOT": 0}, "tle": {"line1": "1 27436U 02026A   25361.33302141  .00000078  00000+0  65449-4 0  9992", "line2": "2 27436  82.9514 296.1823 0046957  20.8637  93.4735 13.75156231183491"}}, "geometry": {"type": "Point", "coordinates": [-27.150880923441907, 78.36486652075375]}}, {"type": "Feature", "properties": {"norad_id": 27818, "name": "COSMOS 2398", "group": "musson", "lat": -63.33520297127523, "lon": 95.95157357881986, "alt_km": 1022.0769133179901, "timestamp": "2025-12-27T16:33:30.492336+00:00", "meta": {"OBJECT_NAME": "COSMOS 2398", "OBJECT_ID": "2003-023A", "EPOCH": "2025-12-27T05:25:12.592416", "MEAN_MOTION": 13.72387353, "ECCENTRICITY": 0.0032677, "INCLINATION": 82.9481, "RA_OF_ASC_NODE": 262.0239, "ARG_OF_PERICENTER": 73.2154, "MEAN_ANOMALY": 39.2775, "EPHEMERIS_TYPE": 0, "CLASSIFICATION_TYPE": "U", "NORAD_CAT_ID": 27818, "ELEMENT_SET_NO": 999, "REV_AT_EPOCH": 13015, "BSTAR": 6.3403e-05, "MEAN_MOTION_DOT": 7.4e-07, "MEAN_MOTION_DDOT": 0}, "tle": {"line1": "1 27818U 03023A   25361.22584019  .00000074  00000+0  63403-4 0  9992", "line2": "2 27818  82.9481 262.0239 0032677  73.2154  39.2775 13.72387353130156"}}, "geometry": {"type": "Point", "coordinates": [95.95157357881986, -63.33520297127523]}}, {"type": "Feature", "properties": {"norad_id": 28380, "name": "COSMOS 2407", "group": "musson", "lat": -68.40424035032783, "lon": -176.36880596168126, "alt_km": 980.7887241950712, "timestamp": "2025-12-27T16:33:30.492347+00:00", "meta": {"OBJECT_NAME": "COSMOS 2407", "OBJECT_ID": "2004-028A", "EPOCH": "2025-12-27T11:57:58.659840", "MEAN_MOTION": 13.76315285, "ECCENTRICITY": 0.0039578, "INCLINATION": 82.9592, "RA_OF_ASC_NODE": 201.9649, "ARG_OF_PERICENTER": 14.4203, "MEAN_ANOMALY": 49.0337, "EPHEMERIS_TYPE": 0, "CLASSIFICATION_TYPE": "U", "NORAD_CAT_ID": 28380, "ELEMENT_SET_NO": 999, "REV_AT_EPOCH": 7626, "BSTAR": 5.0511e-05, "MEAN_MOTION_DOT": 6.5e-07, "MEAN_MOTION_DDOT": 0}, "tle": {"line1": "1 28380U 04028A   25361.49859560  .00000065  00000+0  50511-4 0  9994", "line2": "2 28380  82.9592 201.9649 0039578  14.4203  49.0337 13.76315285 76263"}}, "geometry": {"type": "Point", "coordinates": [-176.36880596168126, -68.40424035032783]}}, {"type": "Feature", "properties": {"norad_id": 28521, "name": "COSMOS 2414", "group": "musson", "lat": 79.82439402235443, "lon": -50.23975080576758, "alt_km": 898.3044478225293, "timestamp": "2025-12-27T16:33:30.492358+00:00", "meta": {"OBJECT_NAME": "COSMOS 2414", "OBJECT_ID": "2005-002A", "EPOCH": "2025-12-27T10:54:10.050336", "MEAN_MOTION": 13.87904848, "ECCENTRICITY": 0.0041451, "INCLINATION": 82.9489, "RA_OF_ASC_NODE": 173.5329, "ARG_OF_PERICENTER": 98.9494, "MEAN_ANOMALY": 261.6365, "EPHEMERIS_TYPE": 0, "CLASSIFICATION_TYPE": "U", "NORAD_CAT_ID": 28521, "ELEMENT_SET_NO": 999, "REV_AT_EPOCH": 5999, "BSTAR": 5.9505e-05, "MEAN_MOTION_DOT": 8.7e-07, "MEAN_MOTION_DDOT": 0}, "tle": {"line1": "1 28521U 05002A   25361.45428299  .00000087  00000+0  59505-4 0  9997", "line2": "2 28521  82.9489 173.5329 0041451  98.9494 261.6365 13.87904848 59991"}}, "geometry": {"type": "Point", "coordinates": [-50.23975080576758, 79.82439402235443]}}, {"type": "Feature", "properties": {"norad_id": 32052, "name": "COSMOS 2429", "group": "musson", "lat": -81.60118054098297, "lon": -151.15891447708174, "alt_km": 989.0150211626351, "timestamp": "2025-12-27T16:33:30.492368+00:00", "meta": {"OBJECT_NAME": "COSMOS 2429", "OBJECT_ID": "2007-038A", "EPOCH": "2025-12-27T06:32:18.000384", "MEAN_MOTION": 13.75150856, "ECCENTRICITY": 0.00383593, "INCLINATION": 82.981, "RA_OF_ASC_NODE": 332.595, "ARG_OF_PERICENTER": 357.7669, "MEAN_ANOMALY": 2.331, "EPHEMERIS_TYPE": 0, "CLASSIFICATION_TYPE": "U", "NORAD_CAT_ID": 32052, "ELEMENT_SET_NO": 999, "REV_AT_EPOCH": 91802, "BSTAR": 6.6146117e-05, "MEAN_MOTION_DOT": 7.9e-07, "MEAN_MOTION_DDOT": 0}, "tle": {"line1": "1 32052U 07038A   25361.27243056  .00000079  00000+0  66146-4 0  9998", "line2": "2 32052  82.9810 332.5950 0038359 357.7669   2.3310 13.75150856918020"}}, "geometry": {"type": "Point", "coordinates": [-151.15891447708174, -81.60118054098297]}}, {"type": "Feature", "properties": {"norad_id": 35635, "name": "COSMOS 2454", "group": "musson", "lat": -74.6170274132385, "lon": 4.016884748769904, "alt_km": 946.8340124094566, "timestamp": "2025-12-27T16:33:30.492379+00:00", "meta": {"OBJECT_NAME": "COSMOS 2454", "OBJECT_ID": "2009-039A", "EPOCH": "2025-12-27T12:09:55.268352", "MEAN_MOTION": 13.89930467, "ECCENTRICITY": 0.0019872, "INCLINATION": 82.956, "RA_OF_ASC_NODE": 157.4507, "ARG_OF_PERICENTER": 33.8497, "MEAN_ANOMALY": 27.1719, "EPHEMERIS_TYPE": 0, "CLASSIFICATION_TYPE": "U", "NORAD_CAT_ID": 35635, "ELEMENT_SET_NO": 999, "REV_AT_EPOCH": 83355, "BSTAR": 6.2489e-05, "MEAN_MOTION_DOT": 9.3e-07, "MEAN_MOTION_DDOT": 0}, "tle": {"line1": "1 35635U 09039A   25361.50688968  .00000093  00000+0  62489-4 0  9994", "line2": "2 35635  82.9560 157.4507 0019872  33.8497  27.1719 13.89930467833555"}}, "geometry": {"type": "Point", "coordinates": [4.016884748769904, -74.6170274132385]}}, {"type": "Feature", "properties": {"norad_id": 36519, "name": "COSMOS 2463", "group": "musson", "lat": 33.94411042443531, "lon": 20.496176868726295, "alt_km": 1013.5137241837974, "timestamp": "2025-12-27T16:33:30.492389+00:00", "meta": {"OBJECT_NAME": "COSMOS 2463", "OBJECT_ID": "2010-017A", "EPOCH": "2025-12-27T11:53:27.038112", "MEAN_MOTION": 13.71650418, "ECCENTRICITY": 0.0034867, "INCLINATION": 82.9603, "RA_OF_ASC_NODE": 15.8683, "ARG_OF_PERICENTER": 245.6019, "MEAN_ANOMALY": 268.7083, "EPHEMERIS_TYPE": 0, "CLASSIFICATION_TYPE": "U", "NORAD_CAT_ID": 36519, "ELEMENT_SET_NO": 999, "REV_AT_EPOCH": 78439, "BSTAR": 4.3867e-05, "MEAN_MOTION_DOT": 5.4e-07, "MEAN_MOTION_DDOT": 0}, "tle": {"line1": "1 36519U 10017A   25361.49545183  .00000054  00000+0  43867-4 0  9999", "line2": "2 36519  82.9603  15.8683 0034867 245.6019 268.7083 13.71650418784391"}}, "geometry": {"type": "Point", "coordinates": [20.496176868726295, 33.94411042443531]}}]}